TANAGER-1               
1 60507U 24149AR  26188.11232677  .00000341  00000+0  93231-5 0  9992
2 60507  97.2319 282.2963 0002809 175.8028 184.3245 15.44037809106110
